CALSPHERE 1             
1 00900U 64063C   17039.84905574  .00000235  00000-0  24438-3 0  9994
2 00900  90.1429   9.5296 0027632 133.7854 226.5602 13.72858857602407
CALSPHERE 2             
1 00902U 64063E   17039.89552634  .00000015  00000-0  84763-5 0  9991
2 00902  90.1481  11.8517 0020039  63.8311 324.8315 13.52643901394999
LCS 1                   
1 01361U 65034C   17039.86674919  .00000009  00000-0  31299-4 0  9996
2 01361  32.1453   6.1120 0007125  31.0128 329.0789  9.89290648872001
TEMPSAT 1               
1 01512U 65065E   17038.57432149  .00000029  00000-0  38032-4 0  9996
2 01512  89.8143 244.5223 0071568 121.2270 292.8468 13.33400155504720
CALSPHERE 4(A)          
1 01520U 65065H   17040.21511365  .00000034  00000-0  49067-4 0  9993
2 01520  90.0897 121.6714 0069150  15.7785  37.4633 13.35723725507173
OPS 5712 (P/L 160)      
1 02826U 67053A   17040.23821797  .00000513  00000-0  15516-3 0  9990
2 02826  69.9284 181.0392 0008825 229.0515 130.9854 14.47724759570168
OPS 5712 (P/L 153)      
1 02874U 67053H   17039.66629391  .00000004  00000-0  41531-4 0  9996
2 02874  69.9714 231.6770 0009753 297.3336  62.6776 13.96282449530428
SURCAL 150B             
1 02909U 67053J   17039.85200907  .00000663  00000-0  15230-3 0  9991
2 02909  69.9474 260.4182 0006337 283.2249  76.8182 14.59911362578523
RIGIDSPHERE 2 (LCS 4)   
1 05398U 71067E   17039.87018382  .00000152  00000-0  47592-4 0  9992
2 05398  87.6260 201.7016 0063229 351.1400   8.8675 14.33538679384401
